[{"OBJECT_NAME":"TUSUR GO (RS78S)","OBJECT_ID":"2024-199AZ","EPOCH":"2026-03-09T22:48:41.341536","MEAN_MOTION":15.7089308,"ECCENTRICITY":0.00036127,"INCLINATION":97.3018,"RA_OF_ASC_NODE":306.7757,"ARG_OF_PERICENTER":269.724,"MEAN_ANOMALY":90.3609,"EPHEMERIS_TYPE":0,"CLASSIFICATION_TYPE":"U","NORAD_CAT_ID":61782,"ELEMENT_SET_NO":999,"REV_AT_EPOCH":11926,"BSTAR":0.0013446465,"MEAN_MOTION_DOT":0.00170473,"MEAN_MOTION_DDOT":0},{"OBJECT_NAME":"STARLINK-11742 [DTC]","OBJECT_ID":"2025-127H","EPOCH":"2026-03-09T06:25:29.444160","MEAN_MOTION":15.70883125,"ECCENTRICITY":0.00017571,"INCLINATION":43.0002,"RA_OF_ASC_NODE":87.2898,"ARG_OF_PERICENTER":209.2559,"MEAN_ANOMALY":150.821,"EPHEMERIS_TYPE":0,"CLASSIFICATION_TYPE":"U","NORAD_CAT_ID":64377,"ELEMENT_SET_NO":999,"REV_AT_EPOCH":4343,"BSTAR":0.0015040085,"MEAN_MOTION_DOT":0.0019755,"MEAN_MOTION_DDOT":0}]
